#aV2008  1  6  0  0   .00000000      96 DD+AD WGS84 FIT  NGA
## 1461       .00000000   900.00000000 54471  .0000000000000
+   32     1  2  3  4  5  6  7  8  9 10 11 12 13 14 15 16 17
+         18 19 20 21 22 23 24 25 26 27 28 29 30 31 32  0  0
+          0  0  0  0  0  0  0  0  0  0  0  0  0  0  0  0  0
+          0  0  0  0  0  0  0  0  0  0  0  0  0  0  0  0  0
+          0  0  0  0  0  0  0  0  0  0  0  0  0  0  0  0  0
++         0  0  0  0  0  0  0  0  0  0  0  0  0  0  0  0  0
++         0  0  0  0  0  0  0  0  0  0  0  0  0  0  0  0  0
++         0  0  0  0  0  0  0  0  0  0  0  0  0  0  0  0  0
++         0  0  0  0  0  0  0  0  0  0  0  0  0  0  0  0  0
++         0  0  0  0  0  0  0  0  0  0  0  0  0  0  0  0  0
%c cc cc ccc ccc cccc cccc cccc cccc ccccc ccccc ccccc ccccc
%c cc cc ccc ccc cccc cccc cccc cccc ccccc ccccc ccccc ccccc
%f  0.0000000  0.000000000  0.00000000000  0.000000000000000
%f  0.0000000  0.000000000  0.00000000000  0.000000000000000
%i    0    0    0    0      0      0      0      0         0
%i    0    0    0    0      0      0      0      0         0
/*      NGA, ST. LOUIS,MO.                                  
/*   EPHEMERIS COMPUTED FROM  3 DAYS OF DATA                
/* CCCCCCCCCCCCCCCCCCCCCCCCCCCCCCCCCCCCCCCCCCCCCCCCCCCCCCCCC
/* CCCCCCCCCCCCCCCCCCCCCCCCCCCCCCCCCCCCCCCCCCCCCCCCCCCCCCCCC
*  2008  1  6  7  0   .00000000                                                 
P  1  13536.476089 -17824.353206  14462.204337    177.202101                    
V  1  16544.488996  -7121.831515 -24709.536649       .024953                    
P  2   2869.158061  17678.964590  19524.902981    164.077398                    
V  2 -22666.562900 -10980.947005  12831.232205       .029677                    
P  3   1874.802479 -18928.879103 -18649.291127    168.807925                    
V  3  19981.377255 -12392.153096  15130.273342       .053894                    
P  4 -10675.280542  11658.740740  21285.416204    -47.414941                    
V  4 -23526.747288 -13783.998074  -3866.476609      -.056323                    
P  5  15026.162446  10429.657380  19044.233999    633.514669                    
V  5   1061.238787  24782.532308 -14075.735832       .178788                    
P  6  23026.763902  -3577.406761  12943.359075    163.551318                    
V  6 -11999.543777  11272.682105  24781.855661      -.146625                    
P  7  23635.283667  -7278.021421  10054.453664     33.695706                    
V  7  -8380.739976   9574.338569  27520.268023       .334363                    
P  8 -17673.094786   4389.553997 -19591.940657   -136.071274                    
V  8 -20349.526139 -13612.900635  14923.775249      -.013708                    
P  9  21103.493306  15368.847390  -5982.338263    104.344931                    
V  9  -7035.282024  -1093.233473 -30637.976760       .018596                    
P 10   1715.510197  26181.490289  -2854.743902   -197.966416                    
V 10  -2937.153340   3477.594876  31817.152275      -.130518                    
P 11 -23753.793081 -11586.898793  -4156.621915     26.912191                    
V 11   6318.368573  -2674.503910 -29346.472640       .001612                    
P 12  12290.993390  16066.751768  17340.830252   -353.466322                    
V 12  -1284.935243  21827.805287 -19344.040144      -.009977                    
P 13 -23679.520999   4771.076148  10908.817165    232.509128                    
V 13  11549.225602  -8017.433162  28331.510696       .023514                    
P 14  21117.485157 -15377.355950   4616.547605   -307.696802                    
V 14   5948.858231  -1116.353540 -31716.585608       .028562                    
P 15   7888.610369  13081.118349 -21697.558590    -70.885658                    
V 15 -23569.207907  14428.287531    116.403742      -.005437                    
P 16   1642.260286 -26321.568583   2312.257561    131.092695                    
V 16   2809.407447   2864.862674  31781.339735       .009508                    
P 17 -21321.659672  15310.262271   3506.049256     45.021272                    
V 17  -5336.297964   -313.321539 -31398.089356      -.008922                    
P 18  15315.617508  -2658.541293 -21338.652553   -214.212479                    
V 18    -95.775270  27572.585948  -3817.706658       .027184                    
P 19  -7657.388612 -13218.478961 -21646.969036     15.465453                    
V 19  24667.502570 -12592.481111   -874.460175       .016966                    
P 20 -13602.510070 -13315.759209  18434.795084    123.112790                    
V 20    920.141911 -23687.187900 -16287.997436      -.007209                    
P 21  23298.823860   2910.462435 -12809.485073     74.100376                    
V 21  12782.183480  10480.718947  24731.317756      -.006080                    
P 22  11848.449632 -17633.906674 -15759.417103    206.460209                    
V 22   1662.021167  20409.225242 -21408.382314       .007833                    
P 23 -17021.152109  -5504.020202  19642.863890    324.030784                    
V 23  20958.083064 -13631.366375  14068.499136       .030801                    
P 24  23094.965940  12546.673985  -2312.552322     60.069119                    
V 24    947.571291   4471.134340  31612.478611       .030950                    
P 25 -24856.130335  -5916.019456  -6577.003808    498.047879                    
V 25  -6983.238195  -6154.389543  30402.507397       .034881                    
P 26   4586.063555  14146.369198 -22423.301012    147.469692                    
V 26 -24206.324298  12682.956911   3652.456936       .109057                    
P 27 -23369.268810  -2089.213328 -11953.983714    159.033491                    
V 27 -13594.831830  -9016.245399  26495.888082       .025837                    
P 28 -12447.209739  14812.653100 -17677.928989    -13.255763                    
V 28  -1631.668754 -23315.325178 -18364.421143      -.005762                    
P 29  17897.899433   5181.762745  19107.441402    -87.586446                    
V 29 -20133.258104  13063.147634  15337.526258       .115141                    
P 30  15345.239938   3497.665323  21074.905233     58.881490                    
V 30    974.556442  27558.504507  -5104.765309       .014056                    
P 31   7742.136355 -13088.173675  21985.448377     -4.250747                    
V 31  23981.942078  13252.089121   -477.821057      -.014257                    
P 32   7352.884140 -24042.778487  -8346.245862    193.796234                    
V 32   1502.972138  11307.346270 -29467.588426       .109725                    
EOF
